STARLINK-32521          
1 62117U 24222D   26068.51871509  .00023048  00000+0  84429-3 0  9993
2 62117  43.0001 133.5044 0001680 271.2024  88.8635 15.27585680 72767
FLOCK 4G-6              
1 62660U 25009BD  26068.71061311  .00012261  00000+0  45910-3 0  9991
2 62660  97.3980 150.7943 0002380 348.2637  11.8546 15.27432125121307
